OBJECT_NAME,OBJECT_ID,EPOCH,MEAN_MOTION,ECCENTRICITY,INCLINATION,RA_OF_ASC_NODE,ARG_OF_PERICENTER,MEAN_ANOMALY,EPHEMERIS_TYPE,CLASSIFICATION_TYPE,NORAD_CAT_ID,ELEMENT_SET_NO,REV_AT_EPOCH,BSTAR,MEAN_MOTION_DOT,MEAN_MOTION_DDOT
INMARSAT 4-F3,2008-039A,2026-06-12T05:53:20.660064,1.00271797,.00028392,4.2893,31.6171,53.4021,165.8854,0,U,33278,999,4649,0,-.128E-5,0
NIMIQ 4,2008-044A,2026-06-12T03:57:38.661984,1.00268879,.00020322,0.0185,309.5644,136.2612,152.0600,0,U,33373,999,6493,0,-.204E-5,0
GALAXY 19 (G-19),2008-045A,2026-06-12T06:19:54.873120,1.00270561,.00025633,0.0175,299.9292,143.1001,175.5523,0,U,33376,999,6485,0,-.124E-5,0
ASTRA 1M,2008-057A,2026-06-12T06:26:48.139872,1.00269554,.00046442,0.2832,82.3754,21.7803,272.5206,0,U,33436,999,4568,0,.136E-5,0
EUTELSAT HOTBIRD 13C,2008-065A,2026-06-12T06:06:57.541824,1.00272869,.00033557,2.9370,79.2469,1.5555,221.2253,0,U,33459,999,4729,0,-.269E-5,0
NSS-9,2009-008A,2026-06-12T05:30:41.228640,1.00272235,.00019327,1.2483,82.7002,347.2895,96.3142,0,U,33749,999,6347,0,.87E-6,0
TELSTAR 11N,2009-009A,2026-06-12T07:13:30.177408,1.00269420,.00021737,0.0046,67.3449,12.0297,252.0780,0,U,34111,999,4619,0,-.236E-5,0
WGS F2 (USA 204),2009-017A,2026-06-12T04:55:04.047744,1.00271719,.00004198,0.0178,341.3812,274.7080,135.7341,0,U,34713,999,4556,0,.83E-6,0
SES-7 (PROTOSTAR 2),2009-027A,2026-06-12T06:52:01.282080,1.00272541,.0000563,0.0502,74.8137,261.1067,135.9691,0,U,34941,999,6258,0,-.33E-5,0
MEASAT-3A,2009-032A,2026-06-12T05:24:19.339776,1.00271185,.00028503,0.0280,21.5550,56.3966,63.6923,0,U,35362,999,798,0,-.95E-6,0
GOES 14,2009-033A,2026-06-12T07:02:30.276672,1.00112438,.0001768,1.6767,83.0988,8.9294,58.8696,0,U,35491,999,654,0,-.257E-5,0
FM-5,2009-034A,2026-06-12T05:43:18.362208,1.00272583,.0000813,0.0165,298.0594,5.8034,316.3885,0,U,35493,999,4659,0,-.185E-5,0
TERRESTAR-1,2009-035A,2026-06-12T05:49:36.019200,1.00272760,.00027679,5.1757,48.8032,26.4485,161.7090,0,U,35496,999,6208,0,-.45E-6,0
JCSAT-12 (JCSAT-RA),2009-044A,2026-06-12T06:59:00.612384,1.00270302,.00007474,0.0111,20.5019,299.4375,177.4813,0,U,35755,999,6156,0,-.312E-5,0
OPTUS D3,2009-044B,2026-06-11T22:32:32.705088,1.00269420,.00027705,0.8691,269.3954,168.7261,316.4350,0,U,35756,999,6151,0,-.129E-5,0
NIMIQ 5,2009-050A,2026-06-12T05:36:39.610656,1.00271754,.00026809,0.0246,283.3200,153.1131,195.6106,0,U,35873,999,6129,0,-.241E-5,0
AMAZONAS 2,2009-054A,2026-06-12T06:00:43.140384,1.00270344,.00032281,1.8022,83.1117,354.4165,201.2505,0,U,35942,999,6113,0,-.244E-5,0
COMSATBW-1,2009-054B,2026-06-12T03:13:54.306048,1.00272145,.00028022,0.0686,77.3604,9.7075,284.8881,0,U,35943,999,6125,0,.4E-6,0
NSS-12,2009-058A,2026-06-12T04:54:56.560320,1.00271522,.00045655,0.0770,67.3226,342.4008,341.5450,0,U,36032,999,6086,0,.87E-6,0
THOR 6,2009-058B,2026-06-12T06:21:03.689856,1.00282939,.00017403,0.0142,338.7372,122.7976,253.4949,0,U,36033,999,6095,0,0,0
INTELSAT 14 (IS-14),2009-064A,2026-06-12T06:08:27.397824,1.00271263,.00022563,0.0134,12.5755,60.0699,235.0739,0,U,36097,999,6055,0,-.258E-5,0
INTELSAT 15 (IS-15),2009-067A,2026-06-12T01:37:38.509248,1.00271432,.00020937,0.0106,24.9478,59.1027,285.9159,0,U,36106,999,4117,0,-.169E-5,0
WGS F3 (USA 211),2009-068A,2026-06-12T05:41:05.856576,1.00267848,.00001412,0.3300,85.7771,62.7184,67.3682,0,U,36108,999,4654,0,.8E-6,0
DIRECTV 12,2009-075A,2026-06-12T06:26:43.582272,1.00265903,.00002289,0.0102,100.4312,27.6768,126.4483,0,U,36131,999,4650,0,-.87E-6,0
SDO,2010-005A,2026-06-12T05:41:54.702816,1.00270258,.00016421,34.6410,86.4181,52.7163,104.8732,0,U,36395,999,6001,0,-.8E-6,0
INTELSAT 16 (IS-16),2010-006A,2026-06-12T05:59:35.748384,1.00271214,.00018818,0.0100,329.2733,129.2422,175.7734,0,U,36397,999,5960,0,-.229E-5,0
EWS-G2 (GOES 15),2010-008A,2026-06-12T04:57:21.758976,1.00275528,.0005396,1.2635,82.9363,41.0669,274.5321,0,U,36411,999,5958,0,.33E-6,0
ECHOSTAR 14,2010-010A,2026-06-12T04:52:05.922048,1.00272228,.00023356,0.0562,89.2268,11.2755,114.1701,0,U,36499,999,4650,0,.16E-6,0
