INMARSAT 4-F3           
1 33278U 08039A   26163.24537801 -.00000128  00000+0  00000+0 0  9991
2 33278   4.2893  31.6171 0002839  53.4021 165.8854  1.00271797 46491
NIMIQ 4                 
1 33373U 08044A   26163.16503081 -.00000204  00000+0  00000+0 0  9992
2 33373   0.0185 309.5644 0002032 136.2612 152.0600  1.00268879 64931
GALAXY 19 (G-19)        
1 33376U 08045A   26163.26382955 -.00000124  00000+0  00000+0 0  9993
2 33376   0.0175 299.9292 0002563 143.1001 175.5523  1.00270561 64858
ASTRA 1M                
1 33436U 08057A   26163.26861273  .00000136  00000+0  00000+0 0  9990
2 33436   0.2832  82.3754 0004644  21.7803 272.5206  1.00269554 45683
EUTELSAT HOTBIRD 13C    
1 33459U 08065A   26163.25483266 -.00000269  00000+0  00000+0 0  9993
2 33459   2.9370  79.2469 0003355   1.5555 221.2253  1.00272869 47295
NSS-9                   
1 33749U 09008A   26163.22964385  .00000087  00000+0  00000+0 0  9993
2 33749   1.2483  82.7002 0001932 347.2895  96.3142  1.00272235 63475
TELSTAR 11N             
1 34111U 09009A   26163.30104372 -.00000236  00000+0  00000+0 0  9996
2 34111   0.0046  67.3449 0002173  12.0297 252.0780  1.00269420 46197
WGS F2 (USA 204)        
1 34713U 09017A   26163.20490796  .00000083  00000+0  00000+0 0  9999
2 34713   0.0178 341.3812 0000419 274.7080 135.7341  1.00271719 45562
SES-7 (PROTOSTAR 2)     
1 34941U 09027A   26163.28612595 -.00000330  00000+0  00000+0 0  9990
2 34941   0.0502  74.8137 0000563 261.1067 135.9691  1.00272541 62584
MEASAT-3A               
1 35362U 09032A   26163.22522384 -.00000095  00000+0  00000+0 0  9992
2 35362   0.0280  21.5550 0002850  56.3966  63.6923  1.00271185  7987
GOES 14                 
1 35491U 09033A   26163.29340598 -.00000257  00000+0  00000+0 0  9998
2 35491   1.6767  83.0988 0001768   8.9294  58.8696  1.00112438  6548
FM-5                    
1 35493U 09034A   26163.23840697 -.00000185  00000+0  00000+0 0  9990
2 35493   0.0165 298.0594 0000813   5.8034 316.3885  1.00272583 46593
TERRESTAR-1             
1 35496U 09035A   26163.24277800 -.00000045  00000+0  00000+0 0  9990
2 35496   5.1757  48.8032 0002767  26.4485 161.7090  1.00272760 62085
JCSAT-12 (JCSAT-RA)     
1 35755U 09044A   26163.29097931 -.00000312  00000+0  00000+0 0  9995
2 35755   0.0111  20.5019 0000747 299.4375 177.4813  1.00270302 61568
OPTUS D3                
1 35756U 09044B   26162.93926742 -.00000129  00000+0  00000+0 0  9993
2 35756   0.8691 269.3954 0002770 168.7261 316.4350  1.00269420 61516
NIMIQ 5                 
1 35873U 09050A   26163.23379179 -.00000241  00000+0  00000+0 0  9995
2 35873   0.0246 283.3200 0002680 153.1131 195.6106  1.00271754 61292
AMAZONAS 2              
1 35942U 09054A   26163.25049931 -.00000244  00000+0  00000+0 0  9991
2 35942   1.8022  83.1117 0003228 354.4165 201.2505  1.00270344 61139
COMSATBW-1              
1 35943U 09054B   26163.13465632  .00000040  00000+0  00000+0 0  9992
2 35943   0.0686  77.3604 0002802   9.7075 284.8881  1.00272145 61258
NSS-12                  
1 36032U 09058A   26163.20482130  .00000087  00000+0  00000+0 0  9997
2 36032   0.0770  67.3226 0004565 342.4008 341.5450  1.00271522 60869
THOR 6                  
1 36033U 09058B   26163.26462604  .00000000  00000+0  00000+0 0  9993
2 36033   0.0142 338.7372 0001740 122.7976 253.4949  1.00282939 60953
INTELSAT 14 (IS-14)     
1 36097U 09064A   26163.25587266 -.00000258  00000+0  00000+0 0  9997
2 36097   0.0134  12.5755 0002256  60.0699 235.0739  1.00271263 60552
INTELSAT 15 (IS-15)     
1 36106U 09067A   26163.06780682 -.00000169  00000+0  00000+0 0  9998
2 36106   0.0106  24.9478 0002093  59.1027 285.9159  1.00271432 41179
WGS F3 (USA 211)        
1 36108U 09068A   26163.23687334  .00000080  00000+0  00000+0 0  9991
2 36108   0.3300  85.7771 0000141  62.7184  67.3682  1.00267848 46542
DIRECTV 12              
1 36131U 09075A   26163.26855998 -.00000087  00000+0  00000+0 0  9999
2 36131   0.0102 100.4312 0000228  27.6768 126.4483  1.00265903 46507
SDO                     
1 36395U 10005A   26163.23743869 -.00000080  00000+0  00000+0 0  9999
2 36395  34.6410  86.4181 0001642  52.7163 104.8732  1.00270258 60018
INTELSAT 16 (IS-16)     
1 36397U 10006A   26163.24971931 -.00000229  00000+0  00000+0 0  9991
2 36397   0.0100 329.2733 0001881 129.2422 175.7734  1.00271214 59602
EWS-G2 (GOES 15)        
1 36411U 10008A   26163.20650184  .00000033  00000+0  00000+0 0  9992
2 36411   1.2635  82.9363 0005396  41.0669 274.5321  1.00275528 59585
ECHOSTAR 14             
1 36499U 10010A   26163.20284632  .00000016  00000+0  00000+0 0  9993
2 36499   0.0562  89.2268 0002335  11.2755 114.1701  1.00272228 46509
